{
"type": "FeatureCollection",
"name": "mpas",
"crs": { "type": "name", "properties": { "name": "urn:ogc:def:crs:OGC:1.3:CRS84" } },
"features": [
{ "type": "Feature", "properties": { "name": "Acandí, Playón, Playona, San Francisco y Cabo Tiburón", "category": "Santuario de Fauna y Flora", "inscription_date": "2015-09-03", "runap_id": 773 }, "geometry": { "type": "Polygon", "coordinates": [ [ [ -76.98695, 8.31801 ], [ -77.07797, 8.31801 ], [ -77.07508, 8.32052 ], [ -77.07636, 8.32509 ], [ -77.08756, 8.32962 ], [ -77.09425, 8.34071 ], [ -77.09471, 8.34724 ], [ -77.10467, 8.35437 ], [ -77.10901, 8.36384 ], [ -77.11797, 8.37151 ], [ -77.11825, 8.37665 ], [ -77.11625, 8.37885 ], [ -77.11451, 8.37766 ], [ -77.11285, 8.37935 ], [ -77.11156, 8.37887 ], [ -77.11076, 8.37945 ], [ -77.11488, 8.38794 ], [ -77.12003, 8.3879 ], [ -77.12772, 8.39661 ], [ -77.13034, 8.41209 ], [ -77.13394, 8.41144 ], [ -77.13591, 8.41634 ], [ -77.14678, 8.41688 ], [ -77.15039, 8.42162 ], [ -77.15509, 8.42012 ], [ -77.16379, 8.43133 ], [ -77.1638, 8.43787 ], [ -77.16992, 8.43353 ], [ -77.1912, 8.43891 ], [ -77.24946, 8.47274 ], [ -77.25325, 8.49068 ], [ -77.27608, 8.50707 ], [ -77.26799, 8.51497 ], [ -77.27095, 8.52265 ], [ -77.26888, 8.5261 ], [ -77.27739, 8.53656 ], [ -77.27654, 8.55338 ], [ -77.28593, 8.56397 ], [ -77.28823, 8.57562 ], [ -77.29427, 8.57627 ], [ -77.30284, 8.58653 ], [ -77.30792, 8.58641 ], [ -77.31017, 8.59522 ], [ -77.32164, 8.60128 ], [ -77.32413, 8.61237 ], [ -77.32864, 8.61548 ], [ -77.32556, 8.61903 ], [ -77.32611, 8.62203 ], [ -77.33048, 8.61895 ], [ -77.33456, 8.62133 ], [ -77.34465, 8.64575 ], [ -77.35479, 8.65766 ], [ -77.36263, 8.65619 ], [ -77.35813, 8.67518 ], [ -77.3664, 8.67243 ], [ -77.3683, 8.67731 ], [ -77.37138, 8.6771 ], [ -77.36414, 8.68536 ], [ -77.34284, 8.75247 ], [ -77.14784, 8.66136 ], [ -77.04573, 8.54574 ], [ -76.98695, 8.31801 ] ] ] } },
{ "type": "Feature", "properties": { "name": "Corales de Profundidad", "category": "Parque Nacional Natural", "inscription_date": "2013-06-25", "runap_id": 731 }, "geometry": { "type": "Polygon", "coordinates": [ [ [ -76.00452, 9.72128 ], [ -76.29475, 9.72128 ], [ -76.29475, 10.12508 ], [ -76.00452, 10.12508 ], [ -76.00452, 9.72128 ] ] ] } },
{ "type": "Feature", "properties": { "name": "Encanto de los Manglares del Bajo Baudó", "category": "Distritos Regionales de Manejo Integrado", "inscription_date": "2017-09-19", "runap_id": 1247 }, "geometry": { "type": "Polygon", "coordinates": [ [ [ -77.44406, 5.51417 ], [ -77.43598, 5.51699 ], [ -77.43046, 5.50564 ], [ -77.42469, 5.50305 ], [ -77.4127, 5.50521 ], [ -77.40409, 5.48938 ], [ -77.40728, 5.48668 ], [ -77.40062, 5.47733 ], [ -77.39669, 5.47574 ], [ -77.38509, 5.48361 ], [ -77.3619, 5.45564 ], [ -77.36684, 5.41605 ], [ -77.36314, 5.40716 ], [ -77.3538, 5.4086 ], [ -77.33613, 5.38809 ], [ -77.34362, 5.38677 ], [ -77.34542, 5.3767 ], [ -77.34308, 5.36948 ], [ -77.34709, 5.34845 ], [ -77.34411, 5.34055 ], [ -77.33837, 5.34064 ], [ -77.33056, 5.33451 ], [ -77.32729, 5.32536 ], [ -77.3296, 5.32074 ], [ -77.32524, 5.32092 ], [ -77.3244, 5.31772 ], [ -77.33103, 5.31091 ], [ -77.31725, 5.30061 ], [ -77.3192, 5.29594 ], [ -77.32701, 5.29331 ], [ -77.32092, 5.29033 ], [ -77.32388, 5.28267 ], [ -77.32254, 5.27803 ], [ -77.31868, 5.27784 ], [ -77.32223, 5.2683 ], [ -77.31811, 5.26938 ], [ -77.31707, 5.26507 ], [ -77.31396, 5.26568 ], [ -77.32188, 5.23736 ], [ -77.31779, 5.23405 ], [ -77.31915, 5.22314 ], [ -77.31471, 5.22041 ], [ -77.30642, 5.2244 ], [ -77.30179, 5.21785 ], [ -77.30868, 5.21464 ], [ -77.31116, 5.20458 ], [ -77.28874, 5.20121 ], [ -77.29327, 5.19847 ], [ -77.29107, 5.1954 ], [ -77.28533, 5.19587 ], [ -77.28848, 5.19137 ], [ -77.28661, 5.17784 ], [ -77.29111, 5.17539 ], [ -77.29043, 5.16716 ], [ -77.2796, 5.15624 ], [ -77.27904, 5.14228 ], [ -77.27012, 5.13453 ], [ -77.27296, 5.12437 ], [ -77.28685, 5.11228 ], [ -77.28474, 5.10464 ], [ -77.27937, 5.10395 ], [ -77.27718, 5.09063 ], [ -77.28033, 5.08388 ], [ -77.27471, 5.07466 ], [ -77.28686, 5.07193 ], [ -77.29764, 5.06205 ], [ -77.30279, 5.05164 ], [ -77.30798, 5.05424 ], [ -77.31553, 5.04927 ], [ -77.31393, 5.04411 ], [ -77.31768, 5.04216 ], [ -77.31579, 5.03914 ], [ -77.30852, 5.03822 ], [ -77.30898, 5.03492 ], [ -77.31288, 5.03412 ], [ -77.30501, 5.02763 ], [ -77.28702, 5.03728 ], [ -77.28499, 5.04402 ], [ -77.27489, 5.02315 ], [ -77.28251, 5.02464 ], [ -77.29074, 5.0134 ], [ -77.29374, 5.01473 ], [ -77.29286, 5.01952 ], [ -77.30323, 5.02085 ], [ -77.30084, 5.01476 ], [ -77.30569, 5.01665 ], [ -77.30787, 5.01134 ], [ -77.31205, 5.0098 ], [ -77.3103, 5.00733 ], [ -77.31419, 5.00713 ], [ -77.31339, 5.00243 ], [ -77.31928, 5.00016 ], [ -77.31231, 4.9946 ], [ -77.31235, 4.98502 ], [ -77.29531, 4.98688 ], [ -77.30024, 4.97222 ], [ -77.31634, 4.96901 ], [ -77.31277, 4.96769 ], [ -77.3082, 4.94734 ], [ -77.29447, 4.94953 ], [ -77.29371, 4.93577 ], [ -77.28739, 4.93022 ], [ -77.27967, 4.93203 ], [ -77.27625, 4.92981 ], [ -77.28652, 4.91985 ], [ -77.29717, 4.91663 ], [ -77.3001, 4.90733 ], [ -77.29622, 4.90256 ], [ -77.27833, 4.9037 ], [ -77.27058, 4.89713 ], [ -77.25902, 4.9011 ], [ -77.2522, 4.86944 ], [ -77.25605, 4.86541 ], [ -77.25558, 4.84499 ], [ -77.259, 4.84444 ], [ -77.2589, 4.83355 ], [ -77.24957, 4.8323 ], [ -77.24719, 4.82483 ], [ -77.23653, 4.81814 ], [ -77.26993, 4.77437 ], [ -77.27411, 4.77299 ], [ -77.27375, 4.76584 ], [ -77.23581, 4.7626 ], [ -77.23718, 4.75557 ], [ -77.24202, 4.75096 ], [ -77.2353, 4.74569 ], [ -77.21635, 4.76299 ], [ -77.20991, 4.752 ], [ -77.2038, 4.74799 ], [ -77.20531, 4.75811 ], [ -77.20204, 4.76014 ], [ -77.18922, 4.75745 ], [ -77.18665, 4.75267 ], [ -77.17936, 4.76005 ], [ -77.16586, 4.75675 ], [ -77.1563, 4.73762 ], [ -77.14916, 4.73948 ], [ -77.14526, 4.7472 ], [ -77.13808, 4.74642 ], [ -77.13585, 4.75222 ], [ -77.12857, 4.75408 ], [ -77.11601, 4.74843 ], [ -77.1141, 4.74453 ], [ -77.14149, 4.70433 ], [ -77.13565, 4.69325 ], [ -77.13961, 4.68308 ], [ -77.1385, 4.67567 ], [ -77.12629, 4.66827 ], [ -77.13283, 4.66244 ], [ -77.15211, 4.65722 ], [ -77.17052, 4.6632 ], [ -77.17675, 4.65105 ], [ -77.19127, 4.64914 ], [ -77.19602, 4.63957 ], [ -77.21096, 4.63469 ], [ -77.22619, 4.63683 ], [ -77.22689, 4.62712 ], [ -77.25797, 4.63615 ], [ -77.25765, 4.62956 ], [ -77.26499, 4.62293 ], [ -77.27221, 4.60969 ], [ -77.26674, 4.60551 ], [ -77.27056, 4.60704 ], [ -77.27414, 4.60251 ], [ -77.27029, 4.59852 ], [ -77.26279, 4.60289 ], [ -77.25587, 4.59735 ], [ -77.26358, 4.56371 ], [ -77.27789, 4.56082 ], [ -77.27716, 4.55655 ], [ -77.28891, 4.54851 ], [ -77.29526, 4.53603 ], [ -77.29374, 4.52662 ], [ -77.28878, 4.52173 ], [ -77.30154, 4.49484 ], [ -77.32317, 4.48896 ], [ -77.33594, 4.49637 ], [ -77.33404, 4.51912 ], [ -77.53373, 4.51908 ], [ -77.54683, 5.50345 ], [ -77.51304, 5.5024 ], [ -77.50392, 5.49442 ], [ -77.4942, 5.49622 ], [ -77.49136, 5.49261 ], [ -77.48687, 5.49921 ], [ -77.48925, 5.51227 ], [ -77.46969, 5.511 ], [ -77.46656, 5.51617 ], [ -77.45606, 5.5171 ], [ -77.45439, 5.52111 ], [ -77.44406, 5.51417 ] ] ] } },
{ "type": "Feature", "properties": { "name": "Ensenada de Rionegro, los Bajos Aledaños, las Ciénagas de Marimonda y el Salado", "category": "Distritos Regionales de Manejo Integrado", "inscription_date": "2013-02-18", "runap_id": 412 }, "geometry": { "type": "MultiPolygon", "coordinates": [ [ [ [ -76.72604, 8.64685 ], [ -76.73105, 8.6411 ], [ -76.72361, 8.63605 ], [ -76.72188, 8.63926 ], [ -76.72088, 8.63101 ], [ -76.72482, 8.62738 ], [ -76.72902, 8.62876 ], [ -76.73798, 8.617 ], [ -76.74215, 8.61614 ], [ -76.74289, 8.59599 ], [ -76.74827, 8.59665 ], [ -76.73985, 8.58479 ], [ -76.74268, 8.57746 ], [ -76.73014, 8.56963 ], [ -76.73424, 8.54985 ], [ -76.74041, 8.54098 ], [ -76.7484, 8.54153 ], [ -76.74947, 8.53652 ], [ -76.77194, 8.53691 ], [ -76.76892, 8.52903 ], [ -76.77606, 8.52277 ], [ -76.77624, 8.51876 ], [ -76.77129, 8.51417 ], [ -76.77532, 8.51131 ], [ -76.77469, 8.50845 ], [ -76.76779, 8.50913 ], [ -76.76736, 8.50544 ], [ -76.76167, 8.50412 ], [ -76.76188, 8.49358 ], [ -76.75366, 8.4861 ], [ -76.7564, 8.47817 ], [ -76.77123, 8.48494 ], [ -76.77779, 8.48211 ], [ -76.78276, 8.48524 ], [ -76.78168, 8.47673 ], [ -76.787, 8.4731 ], [ -76.79775, 8.47427 ], [ -76.79771, 8.47552 ], [ -76.80388, 8.48975 ], [ -76.80536, 8.49187 ], [ -76.80757, 8.49263 ], [ -76.82088, 8.48604 ], [ -76.81623, 8.47969 ], [ -76.81607, 8.47163 ], [ -76.82913, 8.48704 ], [ -76.84708, 8.49949 ], [ -76.90694, 8.52242 ], [ -76.93189, 8.51717 ], [ -76.94693, 8.53626 ], [ -76.94779, 8.55455 ], [ -76.94432, 8.56135 ], [ -76.8972, 8.59574 ], [ -76.89561, 8.62359 ], [ -76.89076, 8.63059 ], [ -76.8514, 8.63259 ], [ -76.80462, 8.63967 ], [ -76.75986, 8.65101 ], [ -76.75562, 8.64862 ], [ -76.75274, 8.65255 ], [ -76.74588, 8.65105 ], [ -76.72866, 8.65689 ], [ -76.72604, 8.64685 ] ] ], [ [ [ -76.79805, 8.47539 ], [ -76.79977, 8.47316 ], [ -76.80437, 8.47552 ], [ -76.81242, 8.47302 ], [ -76.81137, 8.48909 ], [ -76.8064, 8.49085 ], [ -76.79805, 8.47539 ] ] ] ] } },
{ "type": "Feature", "properties": { "name": "Golfo de Tribugá Cabo Corrientes", "category": "Distritos Regionales de Manejo Integrado", "inscription_date": "2016-06-28", "runap_id": 1064 }, "geometry": { "type": "Polygon", "coordinates": [ [ [ -77.53812, 5.50374 ], [ -77.52606, 5.66955 ], [ -77.49681, 5.66949 ], [ -77.41153, 5.7529 ], [ -77.41144, 5.86617 ], [ -77.29428, 5.86703 ], [ -77.29686, 5.85819 ], [ -77.29089, 5.85633 ], [ -77.28999, 5.84222 ], [ -77.28629, 5.84648 ], [ -77.26688, 5.84826 ], [ -77.26395, 5.84451 ], [ -77.27101, 5.84375 ], [ -77.27411, 5.83956 ], [ -77.27125, 5.83488 ], [ -77.26367, 5.84064 ], [ -77.26006, 5.83653 ], [ -77.26494, 5.83486 ], [ -77.25875, 5.83219 ], [ -77.25951, 5.82744 ], [ -77.26349, 5.82105 ], [ -77.2702, 5.82824 ], [ -77.27343, 5.82288 ], [ -77.2616, 5.80813 ], [ -77.25785, 5.79535 ], [ -77.25472, 5.80607 ], [ -77.26208, 5.8114 ], [ -77.25711, 5.81891 ], [ -77.25076, 5.82394 ], [ -77.24371, 5.81552 ], [ -77.24056, 5.81633 ], [ -77.23926, 5.81014 ], [ -77.24362, 5.80948 ], [ -77.23711, 5.80348 ], [ -77.2385, 5.8007 ], [ -77.23268, 5.78988 ], [ -77.22701, 5.78597 ], [ -77.22534, 5.78917 ], [ -77.22663, 5.77228 ], [ -77.22282, 5.76969 ], [ -77.22921, 5.76594 ], [ -77.2264, 5.75559 ], [ -77.2307, 5.75919 ], [ -77.2314, 5.75471 ], [ -77.23608, 5.75872 ], [ -77.23515, 5.74326 ], [ -77.2459, 5.72909 ], [ -77.24652, 5.74087 ], [ -77.25727, 5.73304 ], [ -77.26415, 5.71527 ], [ -77.25139, 5.70776 ], [ -77.26417, 5.69889 ], [ -77.2676, 5.7013 ], [ -77.27051, 5.68883 ], [ -77.2678, 5.68857 ], [ -77.26875, 5.68417 ], [ -77.27481, 5.68375 ], [ -77.2776, 5.68689 ], [ -77.28074, 5.68291 ], [ -77.2847, 5.68533 ], [ -77.29034, 5.67082 ], [ -77.29813, 5.67152 ], [ -77.31156, 5.66215 ], [ -77.31527, 5.66287 ], [ -77.31263, 5.66597 ], [ -77.31703, 5.66933 ], [ -77.31681, 5.65459 ], [ -77.3214, 5.65045 ], [ -77.32709, 5.6515 ], [ -77.32975, 5.64479 ], [ -77.32663, 5.64076 ], [ -77.33985, 5.613 ], [ -77.33874, 5.60937 ], [ -77.34368, 5.60386 ], [ -77.35011, 5.60459 ], [ -77.34783, 5.60006 ], [ -77.35205, 5.60055 ], [ -77.3543, 5.6047 ], [ -77.36212, 5.60131 ], [ -77.38059, 5.61326 ], [ -77.38697, 5.61196 ], [ -77.38995, 5.61623 ], [ -77.38726, 5.61594 ], [ -77.38469, 5.62321 ], [ -77.38768, 5.62688 ], [ -77.40485, 5.62667 ], [ -77.40477, 5.63028 ], [ -77.42254, 5.62479 ], [ -77.44436, 5.60369 ], [ -77.45939, 5.59576 ], [ -77.47343, 5.5961 ], [ -77.47677, 5.58933 ], [ -77.47916, 5.59261 ], [ -77.47982, 5.58957 ], [ -77.47991, 5.59192 ], [ -77.48155, 5.5899 ], [ -77.48419, 5.59207 ], [ -77.48502, 5.60433 ], [ -77.48857, 5.60849 ], [ -77.49516, 5.59882 ], [ -77.49711, 5.59968 ], [ -77.49736, 5.59359 ], [ -77.50409, 5.58511 ], [ -77.50246, 5.5732 ], [ -77.50865, 5.56832 ], [ -77.50567, 5.5555 ], [ -77.51059, 5.54326 ], [ -77.50834, 5.52869 ], [ -77.52235, 5.51351 ], [ -77.52434, 5.5042 ], [ -77.53812, 5.50374 ] ] ] } },
{ "type": "Feature", "properties": { "name": "Gorgona", "category": "Parque Nacional Natural", "inscription_date": "2012-03-06", "runap_id": 93 }, "geometry": { "type": "Polygon", "coordinates": [ [ [ -78.09684, 2.93064 ], [ -78.23018, 2.81397 ], [ -78.29685, 2.81398 ], [ -78.29684, 3.09731 ], [ -78.09683, 3.0973 ], [ -78.09684, 2.93064 ] ] ] } },
{ "type": "Feature", "properties": { "name": "Los Corales del Rosario y de San Bernardo", "category": "Parque Nacional Natural", "inscription_date": "2011-07-13", "runap_id": 67 }, "geometry": { "type": "Polygon", "coordinates": [ [ [ -75.60471, 10.23909 ], [ -75.60521, 10.2312 ], [ -75.60892, 10.22262 ], [ -75.61831, 10.21471 ], [ -75.62101, 10.20626 ], [ -75.62994, 10.19752 ], [ -75.63244, 10.18649 ], [ -75.63112, 10.19322 ], [ -75.63908, 10.18887 ], [ -75.63414, 10.18149 ], [ -75.64336, 10.17105 ], [ -75.64978, 10.17734 ], [ -75.65483, 10.17773 ], [ -75.65505, 10.17374 ], [ -75.64949, 10.17314 ], [ -75.64843, 10.17026 ], [ -75.65695, 10.16178 ], [ -75.68101, 10.15772 ], [ -75.68307, 10.15231 ], [ -75.68617, 10.15466 ], [ -75.69131, 10.14826 ], [ -75.691, 10.14246 ], [ -75.6838, 10.13758 ], [ -75.68761, 10.13688 ], [ -75.69055, 10.14103 ], [ -75.69532, 10.13788 ], [ -75.70238, 10.14028 ], [ -75.70041, 10.14475 ], [ -75.69849, 10.14186 ], [ -75.69501, 10.1438 ], [ -75.69823, 10.14619 ], [ -75.70321, 10.14408 ], [ -75.70442, 10.14147 ], [ -75.70184, 10.13569 ], [ -75.69178, 10.13048 ], [ -75.68484, 10.13153 ], [ -75.68366, 10.13776 ], [ -75.67972, 10.1406 ], [ -75.66844, 10.13844 ], [ -75.66748, 9.94143 ], [ -75.67557, 9.9303 ], [ -75.67582, 9.89383 ], [ -75.68168, 9.87322 ], [ -75.70139, 9.84854 ], [ -75.72293, 9.81174 ], [ -75.73503, 9.82311 ], [ -75.74035, 9.82353 ], [ -75.73977, 9.79294 ], [ -75.74843, 9.7845 ], [ -75.74927, 9.77867 ], [ -75.77361, 9.76617 ], [ -75.77831, 9.76072 ], [ -75.79239, 9.75765 ], [ -75.79583, 9.75274 ], [ -75.80369, 9.75297 ], [ -75.80875, 9.7437 ], [ -75.82053, 9.7371 ], [ -75.82313, 9.73095 ], [ -75.84364, 9.71221 ], [ -75.84327, 9.70702 ], [ -75.8482, 9.70375 ], [ -75.84455, 9.70126 ], [ -75.85722, 9.68788 ], [ -75.85709, 9.66439 ], [ -75.86199, 9.65373 ], [ -75.86917, 9.65525 ], [ -75.86994, 9.66391 ], [ -75.92833, 9.66655 ], [ -75.9291, 9.67069 ], [ -75.92108, 9.6817 ], [ -75.91789, 9.69475 ], [ -75.91712, 9.70018 ], [ -75.92012, 9.70273 ], [ -75.91718, 9.70418 ], [ -75.91759, 9.713 ], [ -75.92331, 9.72713 ], [ -75.93398, 9.72636 ], [ -75.93742, 9.73307 ], [ -75.93747, 9.74223 ], [ -75.94562, 9.75751 ], [ -75.94425, 9.76543 ], [ -75.94132, 9.76384 ], [ -75.94056, 9.76624 ], [ -75.94298, 9.77196 ], [ -75.93655, 9.77443 ], [ -75.93744, 9.78666 ], [ -75.92639, 9.78885 ], [ -75.93159, 9.79682 ], [ -75.93159, 9.80437 ], [ -75.92776, 9.8084 ], [ -75.92035, 9.80808 ], [ -75.92305, 9.81516 ], [ -75.92083, 9.8183 ], [ -75.91083, 9.81896 ], [ -75.90638, 9.82659 ], [ -75.89984, 9.8263 ], [ -75.89177, 9.83229 ], [ -75.89271, 9.83812 ], [ -75.88692, 9.84872 ], [ -75.8879, 10.02674 ], [ -75.90013, 10.02269 ], [ -75.90941, 10.02693 ], [ -75.91548, 10.03481 ], [ -75.912, 10.04415 ], [ -75.9207, 10.05446 ], [ -75.90268, 10.06447 ], [ -75.90025, 10.07644 ], [ -75.88561, 10.085 ], [ -75.8769, 10.09587 ], [ -75.85796, 10.10934 ], [ -75.84715, 10.12726 ], [ -75.84671, 10.13526 ], [ -75.83859, 10.14316 ], [ -75.83724, 10.14082 ], [ -75.83613, 10.14982 ], [ -75.84318, 10.15455 ], [ -75.85142, 10.15195 ], [ -75.85054, 10.14773 ], [ -75.85539, 10.14851 ], [ -75.85928, 10.15443 ], [ -75.86354, 10.1509 ], [ -75.86563, 10.15533 ], [ -75.8606, 10.15997 ], [ -75.85506, 10.15911 ], [ -75.8539, 10.16263 ], [ -75.85077, 10.16241 ], [ -75.85935, 10.16927 ], [ -75.85062, 10.17815 ], [ -75.82431, 10.19085 ], [ -75.82607, 10.19282 ], [ -75.81976, 10.19266 ], [ -75.80249, 10.20573 ], [ -75.79758, 10.20385 ], [ -75.74722, 10.23909 ], [ -75.7235, 10.23921 ], [ -75.72326, 10.19627 ], [ -75.70757, 10.19775 ], [ -75.69225, 10.19288 ], [ -75.66338, 10.20117 ], [ -75.65738, 10.19799 ], [ -75.65916, 10.20321 ], [ -75.6542, 10.20156 ], [ -75.65325, 10.20686 ], [ -75.64894, 10.20471 ], [ -75.64904, 10.21122 ], [ -75.64082, 10.21479 ], [ -75.63622, 10.22586 ], [ -75.64248, 10.22847 ], [ -75.64253, 10.23218 ], [ -75.63347, 10.23548 ], [ -75.62953, 10.2496 ], [ -75.62176, 10.24964 ], [ -75.60471, 10.23909 ] ], [ [ -75.85563, 9.78825 ], [ -75.82847, 9.78988 ], [ -75.82642, 9.79399 ], [ -75.84355, 9.79886 ], [ -75.84144, 9.79569 ], [ -75.84745, 9.79318 ], [ -75.85021, 9.7958 ], [ -75.84543, 9.79596 ], [ -75.8446, 9.79947 ], [ -75.85054, 9.80099 ], [ -75.85033, 9.79407 ], [ -75.85112, 9.79703 ], [ -75.85156, 9.79163 ], [ -75.85479, 9.79228 ], [ -75.85563, 9.78825 ] ], [ [ -75.74871, 10.18243 ], [ -75.74805, 10.17614 ], [ -75.74415, 10.17086 ], [ -75.7369, 10.17224 ], [ -75.73523, 10.17487 ], [ -75.74377, 10.17312 ], [ -75.73238, 10.1769 ], [ -75.73501, 10.17704 ], [ -75.7333, 10.17984 ], [ -75.72992, 10.1771 ], [ -75.72354, 10.18131 ], [ -75.72568, 10.18385 ], [ -75.73026, 10.18113 ], [ -75.7374, 10.18425 ], [ -75.73835, 10.18026 ], [ -75.74461, 10.18027 ], [ -75.74562, 10.18385 ], [ -75.74871, 10.18243 ] ], [ [ -75.87589, 9.77988 ], [ -75.86856, 9.78113 ], [ -75.86972, 9.78387 ], [ -75.87465, 9.78341 ], [ -75.87589, 9.77988 ] ], [ [ -75.65997, 10.16694 ], [ -75.65887, 10.16941 ], [ -75.65601, 10.16911 ], [ -75.6575, 10.16663 ], [ -75.65329, 10.16789 ], [ -75.65454, 10.17257 ], [ -75.66243, 10.16979 ], [ -75.65997, 10.16694 ] ], [ [ -75.75372, 10.17584 ], [ -75.75495, 10.17861 ], [ -75.75552, 10.17389 ], [ -75.75213, 10.1748 ], [ -75.75171, 10.17807 ], [ -75.75372, 10.17584 ] ] ] } },
{ "type": "Feature", "properties": { "name": "Malpelo", "category": "Santuario de Fauna y Flora", "inscription_date": "2011-09-08", "runap_id": 97 }, "geometry": { "type": "Polygon", "coordinates": [ [ [ -82.1025, 5.0 ], [ -79.86667, 5.0 ], [ -79.86667, 3.27732 ], [ -82.1025, 3.27732 ], [ -82.1025, 5.0 ] ] ] } },
{ "type": "Feature", "properties": { "name": "Old Providence Mc Bean Lagoon", "category": "Parque Nacional Natural", "inscription_date": "2011-07-13", "runap_id": 148 }, "geometry": { "type": "Polygon", "coordinates": [ [ [ -81.35661, 13.35353 ], [ -81.35959, 13.37167 ], [ -81.31856, 13.403 ], [ -81.31856, 13.35353 ], [ -81.35661, 13.35353 ] ] ] } },
{ "type": "Feature", "properties": { "name": "Pastos Marinos Sawairu", "category": "Distritos Regionales de Manejo Integrado", "inscription_date": "2019-01-31", "runap_id": 1406 }, "geometry": { "type": "Polygon", "coordinates": [ [ [ -72.15303, 12.20556 ], [ -72.14842, 12.19975 ], [ -72.14488, 12.16156 ], [ -72.14221, 12.15834 ], [ -72.14255, 12.12028 ], [ -72.13911, 12.10506 ], [ -72.16277, 12.04691 ], [ -72.17817, 12.02082 ], [ -72.18359, 11.99922 ], [ -72.20014, 11.97593 ], [ -72.21599, 11.92703 ], [ -72.2407, 11.89601 ], [ -72.2735, 11.8762 ], [ -72.29573, 11.85771 ], [ -72.3201, 11.84949 ], [ -72.32585, 11.84307 ], [ -72.33919, 11.83898 ], [ -72.34744, 11.83032 ], [ -72.38099, 11.81868 ], [ -72.40559, 11.79714 ], [ -72.48563, 11.92051 ], [ -72.38754, 11.96577 ], [ -72.22047, 12.13632 ], [ -72.19407, 12.20848 ], [ -72.18038, 12.20908 ], [ -72.15303, 12.20556 ] ] ] } },
{ "type": "Feature", "properties": { "name": "Sanquianga", "category": "Parque Nacional Natural", "inscription_date": "2011-07-13", "runap_id": 141 }, "geometry": { "type": "Polygon", "coordinates": [ [ [ -78.42863, 2.59925 ], [ -78.41782, 2.60533 ], [ -78.394, 2.60255 ], [ -78.37436, 2.63438 ], [ -78.35616, 2.64812 ], [ -78.33435, 2.65876 ], [ -78.28873, 2.65574 ], [ -78.28416, 2.65688 ], [ -78.28116, 2.66226 ], [ -78.272, 2.65631 ], [ -78.26041, 2.66249 ], [ -78.24709, 2.66221 ], [ -78.24011, 2.66697 ], [ -78.21001, 2.6695 ], [ -78.20782, 2.68358 ], [ -78.19845, 2.67359 ], [ -78.19106, 2.67172 ], [ -78.17411, 2.67602 ], [ -78.16384, 2.68407 ], [ -78.14676, 2.68349 ], [ -78.13674, 2.6751 ], [ -78.13379, 2.66113 ], [ -78.12121, 2.64062 ], [ -78.12469, 2.6278 ], [ -78.11816, 2.60358 ], [ -78.09944, 2.59262 ], [ -78.09729, 2.55319 ], [ -78.09089, 2.53169 ], [ -78.23623, 2.5313 ], [ -78.23592, 2.52714 ], [ -78.2444, 2.5238 ], [ -78.23817, 2.51063 ], [ -78.24132, 2.46409 ], [ -78.24829, 2.45449 ], [ -78.2617, 2.44964 ], [ -78.26428, 2.43886 ], [ -78.28214, 2.44143 ], [ -78.29338, 2.41566 ], [ -78.30226, 2.41576 ], [ -78.30771, 2.40867 ], [ -78.31, 2.3932 ], [ -78.31915, 2.37865 ], [ -78.3907, 2.37876 ], [ -78.39368, 2.38246 ], [ -78.40231, 2.38125 ], [ -78.41279, 2.388 ], [ -78.43367, 2.3891 ], [ -78.43795, 2.39206 ], [ -78.4355, 2.39926 ], [ -78.44895, 2.40089 ], [ -78.45371, 2.40886 ], [ -78.46042, 2.407 ], [ -78.46325, 2.41341 ], [ -78.45476, 2.41528 ], [ -78.46118, 2.42173 ], [ -78.4683, 2.42126 ], [ -78.46226, 2.42756 ], [ -78.46842, 2.43473 ], [ -78.46671, 2.44408 ], [ -78.48767, 2.46114 ], [ -78.49857, 2.46611 ], [ -78.50399, 2.48137 ], [ -78.43095, 2.48137 ], [ -78.43238, 2.49918 ], [ -78.44384, 2.5054 ], [ -78.44586, 2.50313 ], [ -78.44888, 2.51074 ], [ -78.44644, 2.52597 ], [ -78.45187, 2.54179 ], [ -78.46491, 2.54801 ], [ -78.46472, 2.55144 ], [ -78.47073, 2.55607 ], [ -78.45733, 2.57561 ], [ -78.45182, 2.59603 ], [ -78.42863, 2.59925 ] ] ] } },
{ "type": "Feature", "properties": { "name": "Tayrona", "category": "Parque Nacional Natural", "inscription_date": "2011-07-13", "runap_id": 25 }, "geometry": { "type": "Polygon", "coordinates": [ [ [ -73.95083, 11.28672 ], [ -73.95968, 11.29283 ], [ -73.98266, 11.29452 ], [ -73.98421, 11.30325 ], [ -73.99015, 11.3094 ], [ -74.00638, 11.31178 ], [ -74.01122, 11.30916 ], [ -74.01956, 11.29276 ], [ -74.02813, 11.29484 ], [ -74.03432, 11.29041 ], [ -74.04678, 11.28952 ], [ -74.05418, 11.29191 ], [ -74.06433, 11.28345 ], [ -74.08029, 11.28911 ], [ -74.0956, 11.28591 ], [ -74.10167, 11.29082 ], [ -74.11672, 11.29211 ], [ -74.11905, 11.29593 ], [ -74.15494, 11.27894 ], [ -74.1728, 11.27832 ], [ -74.18327, 11.28362 ], [ -74.20557, 11.27136 ], [ -74.21482, 11.27134 ], [ -74.21497, 11.2735 ], [ -74.20217, 11.29692 ], [ -74.20255, 11.3076 ], [ -74.20965, 11.31795 ], [ -74.20531, 11.32893 ], [ -74.19152, 11.33106 ], [ -74.18293, 11.32334 ], [ -74.18094, 11.31392 ], [ -74.17416, 11.31662 ], [ -74.16726, 11.31473 ], [ -74.17003, 11.3232 ], [ -74.16855, 11.32949 ], [ -74.1595, 11.33406 ], [ -74.15001, 11.34445 ], [ -74.14238, 11.3457 ], [ -74.13334, 11.34009 ], [ -74.12081, 11.34297 ], [ -74.11749, 11.3521 ], [ -74.10728, 11.35696 ], [ -74.09932, 11.35446 ], [ -74.08655, 11.33987 ], [ -74.07826, 11.35057 ], [ -74.06556, 11.3543 ], [ -74.05854, 11.35185 ], [ -74.04601, 11.35791 ], [ -73.97165, 11.34705 ], [ -73.96558, 11.34032 ], [ -73.95433, 11.33569 ], [ -73.94577, 11.32451 ], [ -73.89334, 11.30799 ], [ -73.8931, 11.29641 ], [ -73.90051, 11.29214 ], [ -73.89955, 11.2866 ], [ -73.90832, 11.2817 ], [ -73.95083, 11.28672 ] ] ] } },
{ "type": "Feature", "properties": { "name": "Uramba Bahía Málaga", "category": "Parque Nacional Natural", "inscription_date": "2011-07-13", "runap_id": 31 }, "geometry": { "type": "Polygon", "coordinates": [ [ [ -77.26732, 4.06821 ], [ -77.25815, 4.05661 ], [ -77.25822, 4.04785 ], [ -77.25511, 4.04703 ], [ -77.24601, 4.05394 ], [ -77.22354, 4.05908 ], [ -77.22132, 4.05499 ], [ -77.21547, 4.05775 ], [ -77.20992, 4.052 ], [ -77.19581, 4.05299 ], [ -77.19233, 4.05067 ], [ -77.21191, 4.04145 ], [ -77.22362, 4.04021 ], [ -77.22627, 4.02195 ], [ -77.22239, 4.01381 ], [ -77.23113, 4.00772 ], [ -77.2398, 3.99332 ], [ -77.24981, 3.98789 ], [ -77.24786, 3.97444 ], [ -77.25952, 3.98487 ], [ -77.27043, 3.9871 ], [ -77.27321, 3.99161 ], [ -77.27474, 3.98767 ], [ -77.29157, 3.97958 ], [ -77.29276, 3.97222 ], [ -77.302, 3.96268 ], [ -77.31783, 3.95341 ], [ -77.31267, 3.93092 ], [ -77.31596, 3.924 ], [ -77.32077, 3.92491 ], [ -77.31853, 3.91562 ], [ -77.32192, 3.91144 ], [ -77.32069, 3.90241 ], [ -77.30983, 3.90886 ], [ -77.30168, 3.89916 ], [ -77.29746, 3.90236 ], [ -77.28894, 3.89597 ], [ -77.2786, 3.89617 ], [ -77.28033, 3.89214 ], [ -77.28828, 3.89008 ], [ -77.29419, 3.87426 ], [ -77.55511, 3.87553 ], [ -77.55511, 4.03719 ], [ -77.4395, 4.03719 ], [ -77.43915, 4.00709 ], [ -77.40667, 3.98758 ], [ -77.3752, 3.95436 ], [ -77.36548, 3.93345 ], [ -77.35602, 3.92567 ], [ -77.34629, 3.93355 ], [ -77.33829, 3.96193 ], [ -77.33297, 3.95805 ], [ -77.32371, 3.97209 ], [ -77.3269, 3.97852 ], [ -77.31954, 3.99516 ], [ -77.32494, 3.9959 ], [ -77.32127, 4.00697 ], [ -77.31554, 4.00746 ], [ -77.31619, 4.01037 ], [ -77.32082, 4.01065 ], [ -77.31826, 4.01724 ], [ -77.31489, 4.01531 ], [ -77.3171, 4.01868 ], [ -77.31286, 4.0202 ], [ -77.31425, 4.02905 ], [ -77.30799, 4.03005 ], [ -77.31094, 4.0349 ], [ -77.30614, 4.0442 ], [ -77.30385, 4.04016 ], [ -77.30033, 4.04213 ], [ -77.30219, 4.05007 ], [ -77.30552, 4.05189 ], [ -77.30374, 4.05356 ], [ -77.29808, 4.0498 ], [ -77.28437, 4.05228 ], [ -77.29572, 4.05925 ], [ -77.29339, 4.06747 ], [ -77.29626, 4.06812 ], [ -77.28944, 4.06967 ], [ -77.28568, 4.06692 ], [ -77.28673, 4.07053 ], [ -77.26732, 4.06821 ] ] ] } }
]
}
